{"type": "FeatureCollection", "features": [ {"type": "Feature", "properties": {"norad_id": 31537, "name": "FENGYUN 1C DEB", "group": "fengyun-1c-debris", "lat": -64.27705826949101, "lon": 158.24454425468198, "alt_km": 621.7641991140954, "timestamp": "2025-12-11T07:02:24.013357+00:00", "meta": {"OBJECT_NAME": "FENGYUN 1C DEB", "OBJECT_ID": "1999-025BYC", "EPOCH": "2025-12-08T16:46:23.961216", "MEAN_MOTION": 14.20228394, "ECCENTRICITY": 0.03487435, "INCLINATION": 99.2959, "RA_OF_ASC_NODE": 135.6379, "ARG_OF_PERICENTER": 335.9541, "MEAN_ANOMALY": 22.5681, "EPHEMERIS_TYPE": 0, "CLASSIFICATION_TYPE": "U", "NORAD_CAT_ID": 31537, "ELEMENT_SET_NO": 999, "REV_AT_EPOCH": 93224, "BSTAR": 0.0026860598, "MEAN_MOTION_DOT": 0.00010571, "MEAN_MOTION_DDOT": 0}, "tle": {"line1": "1 31537U 99025BYC 25342.69888844  .00010571  00000+0  26861-2 0  9993", "line2": "2 31537  99.2959 135.6379 0348743 335.9541  22.5681 14.20228394932246"}}, "geometry": {"type": "Point", "coordinates": [158.24454425468198, -64.27705826949101]}}, {"type": "Feature", "properties": {"norad_id": 31538, "name": "FENGYUN 1C DEB", "group": "fengyun-1c-debris", "lat": 81.03408989182458, "lon": 100.73769094137076, "alt_km": 577.2359470502324, "timestamp": "2025-12-11T07:02:24.013367+00:00", "meta": {"OBJECT_NAME": "FENGYUN 1C DEB", "OBJECT_ID": "1999-025BYD", "EPOCH": "2025-11-18T21:37:36.814656", "MEAN_MOTION": 14.96885168, "ECCENTRICITY": 0.00235351, "INCLINATION": 98.2479, "RA_OF_ASC_NODE": 190.2519, "ARG_OF_PERICENTER": 356.6213, "MEAN_ANOMALY": 3.4844, "EPHEMERIS_TYPE": 0, "CLASSIFICATION_TYPE": "U", "NORAD_CAT_ID": 31538, "ELEMENT_SET_NO": 999, "REV_AT_EPOCH": 66646, "BSTAR": 0.0047226763, "MEAN_MOTION_DOT": 0.00054817, "MEAN_MOTION_DDOT": 0}, "tle": {"line1": "1 31538U 99025BYD 25322.90112054  .00054817  00000+0  47227-2 0  9999", "line2": "2 31538  98.2479 190.2519 0023535 356.6213   3.4844 14.96885168666469"}}, "geometry": {"type": "Point", "coordinates": [100.73769094137076, 81.03408989182458]}}, {"type": "Feature", "properties": {"norad_id": 31540, "name": "FENGYUN 1C DEB", "group": "fengyun-1c-debris", "lat": 50.732765959884006, "lon": 133.32221907222743, "alt_km": 703.8546671685572, "timestamp": "2025-12-11T07:02:24.013377+00:00", "meta": {"OBJECT_NAME": "FENGYUN 1C DEB", "OBJECT_ID": "1999-025BYF", "EPOCH": "2025-12-09T05:38:36.929760", "MEAN_MOTION": 14.65331731, "ECCENTRICITY": 0.0177015, "INCLINATION": 99.0575, "RA_OF_ASC_NODE": 142.307, "ARG_OF_PERICENTER": 311.8781, "MEAN_ANOMALY": 46.743, "EPHEMERIS_TYPE": 0, "CLASSIFICATION_TYPE": "U", "NORAD_CAT_ID": 31540, "ELEMENT_SET_NO": 999, "REV_AT_EPOCH": 98250, "BSTAR": 0.0011276, "MEAN_MOTION_DOT": 7.611e-05, "MEAN_MOTION_DDOT": 0}, "tle": {"line1": "1 31540U 99025BYF 25343.23514965  .00007611  00000+0  11276-2 0  9993", "line2": "2 31540  99.0575 142.3070 0177015 311.8781  46.7430 14.65331731982509"}}, "geometry": {"type": "Point", "coordinates": [133.32221907222743, 50.732765959884006]}}, {"type": "Feature", "properties": {"norad_id": 31541, "name": "FENGYUN 1C DEB", "group": "fengyun-1c-debris", "lat": -43.6351664018666, "lon": 136.22604139747534, "alt_km": 653.2705547246251, "timestamp": "2025-12-11T07:02:24.013387+00:00", "meta": {"OBJECT_NAME": "FENGYUN 1C DEB", "OBJECT_ID": "1999-025BYG", "EPOCH": "2025-12-10T14:53:30.596064", "MEAN_MOTION": 14.68769293, "ECCENTRICITY": 0.0078449, "INCLINATION": 98.9797, "RA_OF_ASC_NODE": 126.8162, "ARG_OF_PERICENTER": 246.7901, "MEAN_ANOMALY": 112.5025, "EPHEMERIS_TYPE": 0, "CLASSIFICATION_TYPE": "U", "NORAD_CAT_ID": 31541, "ELEMENT_SET_NO": 999, "REV_AT_EPOCH": 98392, "BSTAR": 0.0023072, "MEAN_MOTION_DOT": 0.00014063, "MEAN_MOTION_DDOT": 0}, "tle": {"line1": "1 31541U 99025BYG 25344.62049301  .00014063  00000+0  23072-2 0  9991", "line2": "2 31541  98.9797 126.8162 0078449 246.7901 112.5025 14.68769293983924"}}, "geometry": {"type": "Point", "coordinates": [136.22604139747534, -43.6351664018666]}}, {"type": "Feature", "properties": {"norad_id": 31542, "name": "FENGYUN 1C DEB", "group": "fengyun-1c-debris", "lat": 66.27353849574308, "lon": 18.845464272132514, "alt_km": 836.5834277964113, "timestamp": "2025-12-11T07:02:24.013397+00:00", "meta": {"OBJECT_NAME": "FENGYUN 1C DEB", "OBJECT_ID": "1999-025BYH", "EPOCH": "2025-12-08T14:34:57.942048", "MEAN_MOTION": 14.22760731, "ECCENTRICITY": 0.00472884, "INCLINATION": 98.7313, "RA_OF_ASC_NODE": 36.6499, "ARG_OF_PERICENTER": 218.708, "MEAN_ANOMALY": 141.0706, "EPHEMERIS_TYPE": 0, "CLASSIFICATION_TYPE": "U", "NORAD_CAT_ID": 31542, "ELEMENT_SET_NO": 999, "REV_AT_EPOCH": 95881, "BSTAR": 0.0020971405, "MEAN_MOTION_DOT": 4.714e-05, "MEAN_MOTION_DDOT": 0}, "tle": {"line1": "1 31542U 99025BYH 25342.60761507  .00004714  00000+0  20971-2 0  9994", "line2": "2 31542  98.7313  36.6499 0047288 218.7080 141.0706 14.22760731958813"}}, "geometry": {"type": "Point", "coordinates": [18.845464272132514, 66.27353849574308]}}, {"type": "Feature", "properties": {"norad_id": 31544, "name": "FENGYUN 1C DEB", "group": "fengyun-1c-debris", "lat": -22.105578130506085, "lon": -147.04520910569272, "alt_km": 842.3145618608778, "timestamp": "2025-12-11T07:02:24.013407+00:00", "meta": {"OBJECT_NAME": "FENGYUN 1C DEB", "OBJECT_ID": "1999-025BYK", "EPOCH": "2025-12-10T21:35:38.054400", "MEAN_MOTION": 14.14326834, "ECCENTRICITY": 0.0031797, "INCLINATION": 98.8298, "RA_OF_ASC_NODE": 36.1856, "ARG_OF_PERICENTER": 274.3189, "MEAN_ANOMALY": 85.4351, "EPHEMERIS_TYPE": 0, "CLASSIFICATION_TYPE": "U", "NORAD_CAT_ID": 31544, "ELEMENT_SET_NO": 999, "REV_AT_EPOCH": 95731, "BSTAR": 0.00099143369, "MEAN_MOTION_DOT": 1.86e-05, "MEAN_MOTION_DDOT": 0}, "tle": {"line1": "1 31544U 99025BYK 25344.89974600  .00001860  00000+0  99143-3 0  9996", "line2": "2 31544  98.8298  36.1856 0031797 274.3189  85.4351 14.14326834957310"}}, "geometry": {"type": "Point", "coordinates": [-147.04520910569272, -22.105578130506085]}}, {"type": "Feature", "properties": {"norad_id": 31546, "name": "FENGYUN 1C DEB", "group": "fengyun-1c-debris", "lat": 12.21489672641858, "lon": 53.11936522254739, "alt_km": 914.996151997274, "timestamp": "2025-12-11T07:02:24.013417+00:00", "meta": {"OBJECT_NAME": "FENGYUN 1C DEB", "OBJECT_ID": "1999-025BYM", "EPOCH": "2025-12-10T22:29:01.330080", "MEAN_MOTION": 14.13105869, "ECCENTRICITY": 0.01465316, "INCLINATION": 98.2435, "RA_OF_ASC_NODE": 54.5892, "ARG_OF_PERICENTER": 142.0331, "MEAN_ANOMALY": 219.1282, "EPHEMERIS_TYPE": 0, "CLASSIFICATION_TYPE": "U", "NORAD_CAT_ID": 31546, "ELEMENT_SET_NO": 999, "REV_AT_EPOCH": 94763, "BSTAR": 0.0026878896, "MEAN_MOTION_DOT": 5.527e-05, "MEAN_MOTION_DDOT": 0}, "tle": {"line1": "1 31546U 99025BYM 25344.93682095  .00005527  00000+0  26879-2 0  9996", "line2": "2 31546  98.2435  54.5892 0146531 142.0331 219.1282 14.13105869947631"}}, "geometry": {"type": "Point", "coordinates": [53.11936522254739, 12.21489672641858]}}, {"type": "Feature", "properties": {"norad_id": 31547, "name": "FENGYUN 1C DEB", "group": "fengyun-1c-debris", "lat": 80.71446503613205, "lon": -72.77256909543125, "alt_km": 844.7469198011659, "timestamp": "2025-12-11T07:02:24.013427+00:00", "meta": {"OBJECT_NAME": "FENGYUN 1C DEB", "OBJECT_ID": "1999-025BYN", "EPOCH": "2025-12-09T09:02:48.494688", "MEAN_MOTION": 14.23103077, "ECCENTRICITY": 0.00537834, "INCLINATION": 99.0872, "RA_OF_ASC_NODE": 27.0415, "ARG_OF_PERICENTER": 262.539, "MEAN_ANOMALY": 96.9674, "EPHEMERIS_TYPE": 0, "CLASSIFICATION_TYPE": "U", "NORAD_CAT_ID": 31547, "ELEMENT_SET_NO": 999, "REV_AT_EPOCH": 63969, "BSTAR": 0.0021137662, "MEAN_MOTION_DOT": 4.797e-05, "MEAN_MOTION_DDOT": 0}, "tle": {"line1": "1 31547U 99025BYN 25343.37695017  .00004797  00000+0  21138-2 0  9993", "line2": "2 31547  99.0872  27.0415 0053783 262.5390  96.9674 14.23103077639691"}}, "geometry": {"type": "Point", "coordinates": [-72.77256909543125, 80.71446503613205]}}, {"type": "Feature", "properties": {"norad_id": 31550, "name": "FENGYUN 1C DEB", "group": "fengyun-1c-debris", "lat": 1.9670735637848742, "lon": 165.08101067260236, "alt_km": 780.1201007153377, "timestamp": "2025-12-11T07:02:24.013437+00:00", "meta": {"OBJECT_NAME": "FENGYUN 1C DEB", "OBJECT_ID": "1999-025BYR", "EPOCH": "2025-12-08T18:10:11.266176", "MEAN_MOTION": 14.40173204, "ECCENTRICITY": 0.01902168, "INCLINATION": 98.3115, "RA_OF_ASC_NODE": 342.3294, "ARG_OF_PERICENTER": 284.9063, "MEAN_ANOMALY": 73.1133, "EPHEMERIS_TYPE": 0, "CLASSIFICATION_TYPE": "U", "NORAD_CAT_ID": 31550, "ELEMENT_SET_NO": 999, "REV_AT_EPOCH": 65397, "BSTAR": 0.0013773158, "MEAN_MOTION_DOT": 5.342e-05, "MEAN_MOTION_DDOT": 0}, "tle": {"line1": "1 31550U 99025BYR 25342.75707484  .00005342  00000+0  13773-2 0  9993", "line2": "2 31550  98.3115 342.3294 0190216 284.9063  73.1133 14.40173204653975"}}, "geometry": {"type": "Point", "coordinates": [165.08101067260236, 1.9670735637848742]}}, {"type": "Feature", "properties": {"norad_id": 31552, "name": "FENGYUN 1C DEB", "group": "fengyun-1c-debris", "lat": 54.69509802954558, "lon": -60.50321711264381, "alt_km": 743.7016056578141, "timestamp": "2025-12-11T07:02:24.013447+00:00", "meta": {"OBJECT_NAME": "FENGYUN 1C DEB", "OBJECT_ID": "1999-025BYT", "EPOCH": "2025-12-10T07:13:02.887104", "MEAN_MOTION": 14.45602719, "ECCENTRICITY": 0.0085668, "INCLINATION": 98.6214, "RA_OF_ASC_NODE": 106.1177, "ARG_OF_PERICENTER": 28.3549, "MEAN_ANOMALY": 332.2265, "EPHEMERIS_TYPE": 0, "CLASSIFICATION_TYPE": "U", "NORAD_CAT_ID": 31552, "ELEMENT_SET_NO": 999, "REV_AT_EPOCH": 95841, "BSTAR": 0.0042538, "MEAN_MOTION_DOT": 0.0001571, "MEAN_MOTION_DDOT": 0}, "tle": {"line1": "1 31552U 99025BYT 25344.30072786  .00015710  00000+0  42538-2 0  9999", "line2": "2 31552  98.6214 106.1177 0085668  28.3549 332.2265 14.45602719958414"}}, "geometry": {"type": "Point", "coordinates": [-60.50321711264381, 54.69509802954558]}}]}